1998-067XK              
1 65731U 98067XK  26023.72597916  .00222266  00000+0  13085-2 0  9999
2 65731  51.6250 282.6394 0004318 136.6074 223.5267 15.76997602 19740
RSP-03                  
1 65732U 98067XL  26023.78918521  .00400625  00000+0  15556-2 0  9997
2 65732  51.6211 280.0200 0005533 152.4145 207.7154 15.85523620 19790
YOTSUBA-KULOVER         
1 65941U 98067XN  26023.85233021  .00128879  00000+0  11794-2 0  9990
2 65941  51.6268 287.2540 0004372 153.4793 206.6427 15.66871150 16443
BOTAN                   
1 65942U 98067XP  26023.77288683  .00261853  00000+0  16387-2 0  9999
2 65942  51.6232 285.2024 0005286 160.5052 199.6150 15.75484980 16469
E-KAGAKU-1              
1 65943U 98067XQ  26023.02319890  .00126218  00000+0  11672-2 0  9990
2 65943  51.6284 291.4753 0003060 156.2868 203.8269 15.66627263 16316
HRC MONOBLOCK CAMERA    
1 66052U 98067XR  26023.78973940  .00056951  00000+0  75901-3 0  9999
2 66052  51.6293 291.3391 0000764  30.7029 329.4008 15.57560459 15383
HTV-X1                  
1 66174U 25241A   26023.72220588  .00016677  00000+0  30360-3 0  9996
2 66174  51.6325 294.6353 0007776  51.0046 309.1634 15.49596283   517
SZ-21 MODULE            
1 66515U 25246C   26023.62692655  .00042139  00000+0  41574-3 0  9998
2 66515  41.4756 120.0416 0003123 226.9812 133.0767 15.65132794 11007
SHENZHOU-22             
1 66645U 25272A   26023.90190285  .00028661  00000+0  33398-3 0  9993
2 66645  41.4667 120.4029 0010179 347.3565  12.7018 15.60968307267645
SOYUZ-MS 28             
1 66664U 25275A   26023.72220588  .00016677  00000+0  30360-3 0  9997
2 66664  51.6325 294.6353 0007776  51.0046 309.1634 15.49596283  1286
DUPLEX                  
1 66906U 98067XS  26023.46030894  .00034290  00000+0  54404-3 0  9991
2 66906  51.6309 295.1385 0001958  49.0886 311.0274 15.53036970  8098
1998-067XT              
1 66907U 98067XT  26023.76995588  .00118950  00000+0  15328-2 0  9992
2 66907  51.6287 292.7063 0003293 112.4902 247.6439 15.58126078  8156
